{"type": "FeatureCollection", "features": [ {"type": "Feature", "properties": {"norad_id": 41469, "name": "IRNSS-1G", "group": "gnss", "lat": -4.55269748610581, "lon": -5.932267006481638, "alt_km": 35783.13441585135, "timestamp": "2025-12-26T08:37:54.823388+00:00", "meta": {"OBJECT_NAME": "IRNSS-1G", "OBJECT_ID": "2016-027A", "EPOCH": "2025-12-25T22:20:51.595008", "MEAN_MOTION": 1.0027347, "ECCENTRICITY": 0.0002712, "INCLINATION": 4.7669, "RA_OF_ASC_NODE": 101.7607, "ARG_OF_PERICENTER": 326.3012, "MEAN_ANOMALY": 131.4056, "EPHEMERIS_TYPE": 0, "CLASSIFICATION_TYPE": "U", "NORAD_CAT_ID": 41469, "ELEMENT_SET_NO": 999, "REV_AT_EPOCH": 3544, "BSTAR": 0, "MEAN_MOTION_DOT": -3.14e-06, "MEAN_MOTION_DDOT": 0}, "tle": {"line1": "1 41469U 16027A   25359.93115272 -.00000314  00000+0  00000+0 0  9991", "line2": "2 41469   4.7669 101.7607 0002712 326.3012 131.4056  1.00273470 35449"}}, "geometry": {"type": "Point", "coordinates": [-5.932267006481638, -4.55269748610581]}}, {"type": "Feature", "properties": {"norad_id": 41549, "name": "GSAT0211 (GALILEO 14)", "group": "gnss", "lat": 9.457603846448109, "lon": -126.8743522830827, "alt_km": 23209.49863782345, "timestamp": "2025-12-26T08:37:54.823399+00:00", "meta": {"OBJECT_NAME": "GSAT0211 (GALILEO 14)", "OBJECT_ID": "2016-030A", "EPOCH": "2025-12-25T18:06:09.127584", "MEAN_MOTION": 1.70473226, "ECCENTRICITY": 0.0003991, "INCLINATION": 55.1481, "RA_OF_ASC_NODE": 226.465, "ARG_OF_PERICENTER": 16.0221, "MEAN_ANOMALY": 344.0794, "EPHEMERIS_TYPE": 0, "CLASSIFICATION_TYPE": "U", "NORAD_CAT_ID": 41549, "ELEMENT_SET_NO": 999, "REV_AT_EPOCH": 5971, "BSTAR": 0, "MEAN_MOTION_DOT": 7e-07, "MEAN_MOTION_DDOT": 0}, "tle": {"line1": "1 41549U 16030A   25359.75427231  .00000070  00000+0  00000+0 0  9993", "line2": "2 41549  55.1481 226.4650 0003991  16.0221 344.0794  1.70473226 59713"}}, "geometry": {"type": "Point", "coordinates": [-126.8743522830827, 9.457603846448109]}}, {"type": "Feature", "properties": {"norad_id": 41550, "name": "GSAT0210 (GALILEO 13)", "group": "gnss", "lat": -27.017475386806968, "lon": 67.26663016712767, "alt_km": 23224.443222534213, "timestamp": "2025-12-26T08:37:54.823410+00:00", "meta": {"OBJECT_NAME": "GSAT0210 (GALILEO 13)", "OBJECT_ID": "2016-030B", "EPOCH": "2025-12-24T20:07:27.603552", "MEAN_MOTION": 1.70473396, "ECCENTRICITY": 5.683e-05, "INCLINATION": 55.1478, "RA_OF_ASC_NODE": 226.4883, "ARG_OF_PERICENTER": 175.0994, "MEAN_ANOMALY": 184.9941, "EPHEMERIS_TYPE": 0, "CLASSIFICATION_TYPE": "U", "NORAD_CAT_ID": 41550, "ELEMENT_SET_NO": 999, "REV_AT_EPOCH": 5969, "BSTAR": 0, "MEAN_MOTION_DOT": 7.1e-07, "MEAN_MOTION_DDOT": 0}, "tle": {"line1": "1 41550U 16030B   25358.83851393  .00000071  00000+0  00000+0 0  9994", "line2": "2 41550  55.1478 226.4883 0000568 175.0994 184.9941  1.70473396 59699"}}, "geometry": {"type": "Point", "coordinates": [67.26663016712767, -27.017475386806968]}}, {"type": "Feature", "properties": {"norad_id": 41586, "name": "BEIDOU-2 G7 (C03)", "group": "gnss", "lat": -1.797718644347408, "lon": -25.069683887171255, "alt_km": 35788.84755031409, "timestamp": "2025-12-26T08:37:54.823421+00:00", "meta": {"OBJECT_NAME": "BEIDOU-2 G7 (C03)", "OBJECT_ID": "2016-037A", "EPOCH": "2025-12-26T01:34:23.900160", "MEAN_MOTION": 1.00268103, "ECCENTRICITY": 0.0005179, "INCLINATION": 1.7875, "RA_OF_ASC_NODE": 67.9034, "ARG_OF_PERICENTER": 0.6616, "MEAN_ANOMALY": 160.2669, "EPHEMERIS_TYPE": 0, "CLASSIFICATION_TYPE": "U", "NORAD_CAT_ID": 41586, "ELEMENT_SET_NO": 999, "REV_AT_EPOCH": 515, "BSTAR": 0, "MEAN_MOTION_DOT": -3.32e-06, "MEAN_MOTION_DDOT": 0}, "tle": {"line1": "1 41586U 16037A   25360.06555440 -.00000332  00000+0  00000+0 0  9993", "line2": "2 41586   1.7875  67.9034 0005179   0.6616 160.2669  1.00268103  5156"}}, "geometry": {"type": "Point", "coordinates": [-25.069683887171255, -1.797718644347408]}}, {"type": "Feature", "properties": {"norad_id": 41589, "name": "EUTELSAT 117 WEST B (WAAS/PRN 131)", "group": "gnss", "lat": -0.00413320509404035, "lon": 107.60898398756184, "alt_km": 35786.97814232394, "timestamp": "2025-12-26T08:37:54.823433+00:00", "meta": {"OBJECT_NAME": "EUTELSAT 117 WEST B (WAAS/PRN 131)", "OBJECT_ID": "2016-038B", "EPOCH": "2025-12-24T09:59:01.014144", "MEAN_MOTION": 1.00277873, "ECCENTRICITY": 6.384e-05, "INCLINATION": 0.0094, "RA_OF_ASC_NODE": 154.0765, "ARG_OF_PERICENTER": 139.5473, "MEAN_ANOMALY": 192.3072, "EPHEMERIS_TYPE": 0, "CLASSIFICATION_TYPE": "U", "NORAD_CAT_ID": 41589, "ELEMENT_SET_NO": 999, "REV_AT_EPOCH": 3491, "BSTAR": 0, "MEAN_MOTION_DOT": 9e-08, "MEAN_MOTION_DDOT": 0}, "tle": {"line1": "1 41589U 16038B   25358.41598396  .00000009  00000+0  00000+0 0  9990", "line2": "2 41589   0.0094 154.0765 0000638 139.5473 192.3072  1.00277873 34915"}}, "geometry": {"type": "Point", "coordinates": [107.60898398756184, -0.00413320509404035]}}, {"type": "Feature", "properties": {"norad_id": 41859, "name": "GSAT0207 (GALILEO 15)", "group": "gnss", "lat": 34.031930507246116, "lon": 133.6289842900619, "alt_km": 23217.39700823656, "timestamp": "2025-12-26T08:37:54.823447+00:00", "meta": {"OBJECT_NAME": "GSAT0207 (GALILEO 15)", "OBJECT_ID": "2016-069A", "EPOCH": "2025-12-22T04:24:39.710016", "MEAN_MOTION": 1.70474442, "ECCENTRICITY": 0.00024396, "INCLINATION": 55.3874, "RA_OF_ASC_NODE": 105.9888, "ARG_OF_PERICENTER": 317.4324, "MEAN_ANOMALY": 42.5257, "EPHEMERIS_TYPE": 0, "CLASSIFICATION_TYPE": "U", "NORAD_CAT_ID": 41859, "ELEMENT_SET_NO": 999, "REV_AT_EPOCH": 5638, "BSTAR": 0, "MEAN_MOTION_DOT": 6e-08, "MEAN_MOTION_DDOT": 0}, "tle": {"line1": "1 41859U 16069A   25356.18379294  .00000006  00000+0  00000+0 0  9997", "line2": "2 41859  55.3874 105.9888 0002439 317.4324  42.5257  1.70474442 56382"}}, "geometry": {"type": "Point", "coordinates": [133.6289842900619, 34.031930507246116]}}, {"type": "Feature", "properties": {"norad_id": 41860, "name": "GSAT0212 (GALILEO 16)", "group": "gnss", "lat": 37.22180978286812, "lon": -105.7260758741661, "alt_km": 23220.01919899279, "timestamp": "2025-12-26T08:37:54.823460+00:00", "meta": {"OBJECT_NAME": "GSAT0212 (GALILEO 16)", "OBJECT_ID": "2016-069B", "EPOCH": "2025-12-26T03:26:41.870688", "MEAN_MOTION": 1.70474669, "ECCENTRICITY": 0.0002052, "INCLINATION": 55.3873, "RA_OF_ASC_NODE": 105.8745, "ARG_OF_PERICENTER": 19.1308, "MEAN_ANOMALY": 340.872, "EPHEMERIS_TYPE": 0, "CLASSIFICATION_TYPE": "U", "NORAD_CAT_ID": 41860, "ELEMENT_SET_NO": 999, "REV_AT_EPOCH": 5670, "BSTAR": 0, "MEAN_MOTION_DOT": 1.8e-07, "MEAN_MOTION_DDOT": 0}, "tle": {"line1": "1 41860U 16069B   25360.14354017  .00000018  00000+0  00000+0 0  9999", "line2": "2 41860  55.3873 105.8745 0002052  19.1308 340.8720  1.70474669 56709"}}, "geometry": {"type": "Point", "coordinates": [-105.7260758741661, 37.22180978286812]}}, {"type": "Feature", "properties": {"norad_id": 41861, "name": "GSAT0213 (GALILEO 17)", "group": "gnss", "lat": -55.300107229313305, "lon": 10.701403391119756, "alt_km": 23220.19022590282, "timestamp": "2025-12-26T08:37:54.823471+00:00", "meta": {"OBJECT_NAME": "GSAT0213 (GALILEO 17)", "OBJECT_ID": "2016-069C", "EPOCH": "2025-12-21T19:38:29.842080", "MEAN_MOTION": 1.70474953, "ECCENTRICITY": 0.00027355, "INCLINATION": 55.3872, "RA_OF_ASC_NODE": 106.002, "ARG_OF_PERICENTER": 282.3014, "MEAN_ANOMALY": 77.6427, "EPHEMERIS_TYPE": 0, "CLASSIFICATION_TYPE": "U", "NORAD_CAT_ID": 41861, "ELEMENT_SET_NO": 999, "REV_AT_EPOCH": 5649, "BSTAR": 0, "MEAN_MOTION_DOT": 4e-08, "MEAN_MOTION_DDOT": 0}, "tle": {"line1": "1 41861U 16069C   25355.81840095  .00000004  00000+0  00000+0 0  9999", "line2": "2 41861  55.3872 106.0020 0002735 282.3014  77.6427  1.70474953 56495"}}, "geometry": {"type": "Point", "coordinates": [10.701403391119756, -55.300107229313305]}}, {"type": "Feature", "properties": {"norad_id": 41862, "name": "GSAT0214 (GALILEO 18)", "group": "gnss", "lat": 2.083789435468155, "lon": -75.5689885882888, "alt_km": 23223.847708161986, "timestamp": "2025-12-26T08:37:54.823482+00:00", "meta": {"OBJECT_NAME": "GSAT0214 (GALILEO 18)", "OBJECT_ID": "2016-069D", "EPOCH": "2025-12-24T07:27:29.645856", "MEAN_MOTION": 1.70474781, "ECCENTRICITY": 0.00017476, "INCLINATION": 55.3867, "RA_OF_ASC_NODE": 105.9257, "ARG_OF_PERICENTER": 287.2715, "MEAN_ANOMALY": 72.6994, "EPHEMERIS_TYPE": 0, "CLASSIFICATION_TYPE": "U", "NORAD_CAT_ID": 41862, "ELEMENT_SET_NO": 999, "REV_AT_EPOCH": 5666, "BSTAR": 0, "MEAN_MOTION_DOT": 1.5e-07, "MEAN_MOTION_DDOT": 0}, "tle": {"line1": "1 41862U 16069D   25358.31075979  .00000015  00000+0  00000+0 0  9991", "line2": "2 41862  55.3867 105.9257 0001747 287.2715  72.6994  1.70474781 56666"}}, "geometry": {"type": "Point", "coordinates": [-75.5689885882888, 2.083789435468155]}}, {"type": "Feature", "properties": {"norad_id": 42709, "name": "SES-15 (WAAS/PRN 133)", "group": "gnss", "lat": 0.03341480940630544, "lon": 95.39085855162683, "alt_km": 35788.047179293986, "timestamp": "2025-12-26T08:37:54.823494+00:00", "meta": {"OBJECT_NAME": "SES-15 (WAAS/PRN 133)", "OBJECT_ID": "2017-026A", "EPOCH": "2025-12-24T22:45:23.082912", "MEAN_MOTION": 1.00266955, "ECCENTRICITY": 1.926e-05, "INCLINATION": 0.0189, "RA_OF_ASC_NODE": 339.9937, "ARG_OF_PERICENTER": 321.3505, "MEAN_ANOMALY": 4.5524, "EPHEMERIS_TYPE": 0, "CLASSIFICATION_TYPE": "U", "NORAD_CAT_ID": 42709, "ELEMENT_SET_NO": 999, "REV_AT_EPOCH": 568, "BSTAR": 0, "MEAN_MOTION_DOT": 8.1e-07, "MEAN_MOTION_DDOT": 0}, "tle": {"line1": "1 42709U 17026A   25358.94818383  .00000081  00000+0  00000+0 0  9992", "line2": "2 42709   0.0189 339.9937 0000192 321.3505   4.5524  1.00266955  5689"}}, "geometry": {"type": "Point", "coordinates": [95.39085855162683, 0.03341480940630544]}}]}